STARLINK-1792           
1 46693U 20073Z   24161.49608542  .00001443  00000+0  11575-3 0  9995
2 46693  53.0545 226.5792 0001322  94.5743 265.5397 15.06388982201409
STARLINK-1793           
1 46694U 20073AA  24161.52004205  .00000540  00000+0  55171-4 0  9994
2 46694  53.0502 206.4689 0000669 107.6904 252.4157 15.06388703201717
STARLINK-1795           
1 46696U 20073AC  24161.53848186 -.00000867  00000+0 -39329-4 0  9992
2 46696  53.0538 206.3913 0001478  89.9636 270.1522 15.06384900201707
STARLINK-1797           
1 46698U 20073AE  24161.47460943  .00004097  00000+0  30025-3 0  9998
2 46698  53.0532 226.7991 0001077  79.9428 280.1682 15.05571627201394
STARLINK-1799           
1 46699U 20073AF  24161.46660087 -.00000420  00000+0 -93151-5 0  9998
2 46699  53.0537 226.7132 0001134  89.0264 271.0855 15.06387646201377
STARLINK-1800           
1 46700U 20073AG  24161.47075409 -.00003491  00000+0 -21569-3 0  9993
2 46700  53.0527 241.6921 0001271  95.8623 264.2511 15.06377751201208
STARLINK-1801           
1 46701U 20073AH  24161.50345765  .00000694  00000+0  65461-4 0  9993
2 46701  53.0524 226.5465 0001275  94.7581 265.3554 15.06396838201426
STARLINK-1802           
1 46702U 20073AJ  24161.51636451 -.00000329  00000+0 -31844-5 0  9996
2 46702  53.0518 206.4861 0000715  85.2598 274.8473 15.06405260201715
STARLINK-1803           
1 46703U 20073AK  24161.54768802 -.00001848  00000+0 -10520-3 0  9999
2 46703  53.0527 226.3450 0001750  66.9990 293.1183 15.06387320201429
STARLINK-1805           
1 46705U 20073AM  24161.47443331 -.00007285  00000+0 -47088-3 0  9990
2 46705  53.0531 241.6785 0001405  79.3492 280.7655 15.06385797201207
STARLINK-1807           
1 46706U 20073AN  24160.91739407 -.00007241  00000+0 -46783-3 0  9994
2 46706  53.0520 229.1792 0001317  92.2817 267.8323 15.06388936201332
STARLINK-1808           
1 46707U 20073AP  24161.50530372  .00000937  00000+0  81831-4 0  9998
2 46707  53.0530 206.5386 0001316  89.7328 270.3812 15.06390236201719
STARLINK-1810           
1 46709U 20073AR  24161.44865025 -.00010330  00000+0 -67600-3 0  9996
2 46709  53.0545 241.9197 0001311  63.3489 296.7634 15.06377768201192
STARLINK-1813           
1 46711U 20073AT  24161.50714704 -.00003357  00000+0 -20661-3 0  9990
2 46711  53.0522 226.5289 0001071  81.8378 278.2732 15.06393747201409
STARLINK-1814           
1 46712U 20073AU  24161.41871086 -.00006396  00000+0 -41114-3 0  9990
2 46712  53.0528 227.0534 0001155  98.1842 261.9278 15.06374252201409
STARLINK-1815           
1 46713U 20073AV  24161.55043002  .00000484  00000+0  51373-4 0  9994
2 46713  53.0533 226.3259 0001307  93.4095 266.7043 15.06393916201422
STARLINK-1816           
1 46714U 20073AW  24161.40762681  .00002821  00000+0  20819-3 0  9997
2 46714  53.0536 226.9777 0001395  90.2055 269.9093 15.06399818201400
STARLINK-1817           
1 46715U 20073AX  24161.47029153 -.00001050  00000+0 -51630-4 0  9996
2 46715  53.0533 226.6947 0001274  81.0191 279.0942 15.06383957201412
STARLINK-1818           
1 46716U 20073AY  24161.48548907 -.00007314  00000+0 -47285-3 0  9990
2 46716  53.0529 241.6291 0001195 105.7876 254.3245 15.06381497201209
STARLINK-1820           
1 46717U 20073AZ  24161.48871727 -.00002531  00000+0 -15114-3 0  9992
2 46717  53.0531 226.6147 0001258 100.3207 259.7924 15.06379084201410
STARLINK-1821           
1 46718U 20073BA  24161.46707759 -.00002933  00000+0 -17817-3 0  9992
2 46718  53.0552 241.7451 0001741  82.1466 277.9720 15.06380412201201
STARLINK-1822           
1 46719U 20073BB  24161.51267910 -.00003639  00000+0 -22556-3 0  9999
2 46719  53.0518 206.5052 0001137  76.9848 283.1268 15.06396235201705
STARLINK-1826           
1 46723U 20073BF  24161.38228284 -.00000235  00000+0  31267-5 0  9999
2 46723  53.0538 202.0880 0001591 102.5121 257.6046 15.06407357201759
STARLINK-1828           
1 46725U 20073BH  24161.45231593 -.00001420  00000+0 -76442-4 0  9997
2 46725  53.0541 241.7767 0001342  63.9028 296.2099 15.06390308201203
STARLINK-1829           
1 46726U 20073BJ  24161.41036840 -.00004485  00000+0 -28253-3 0  9992
2 46726  53.0528 226.9528 0001249  86.7589 273.3543 15.06380563201404
STARLINK-1830           
1 46727U 20073BK  24161.43389405  .00000509  00000+0  53064-4 0  9993
2 46727  53.0523 201.8563 0001390  84.4234 275.6913 15.06388722201760
STARLINK-1848           
1 46740U 20074B   24161.12888566 -.00001987  00000+0 -11454-3 0  9996
2 46740  53.0556 313.2255 0002546  86.3614 273.7666 15.06391663200372
STARLINK-1865           
1 46741U 20074C   24161.54400500  .00005995  00000+0  42130-3 0  9997
2 46741  53.0547 306.3632 0001320  98.9738 261.1400 15.06375180200519
STARLINK-1892           
1 46743U 20074E   24161.13854251  .00002579  00000+0  19192-3 0  9997
2 46743  53.0518 308.1799 0002238  91.1538 268.9708 15.06411263200457
STARLINK-1894           
1 46744U 20074F   24161.44820055  .00001700  00000+0  13302-3 0  9999
2 46744  53.0600 307.0650 0001682  95.8057 264.3124 15.06385937200475
STARLINK-1905           
1 46746U 20074H   24161.43711403  .00009748  00000+0  67239-3 0  9994
2 46746  53.0550 306.8422 0003724 296.9486  63.1122 15.06398198200492
STARLINK-1908           
1 46747U 20074J   24161.41867804  .00012638  00000+0  86582-3 0  9994
2 46747  53.0544 306.9289 0001309 106.7412 253.3721 15.06400100200497
STARLINK-1910           
1 46748U 20074K   24161.35970051 -.00006683  00000+0 -43025-3 0  9997
2 46748  53.0552 307.1895 0001411  92.1399 267.9752 15.06395627200480
STARLINK-1911           
1 46749U 20074L   24161.43342896 -.00007813  00000+0 -50657-3 0  9992
2 46749  53.0585 306.8622 0000329   8.8829 351.2166 15.06377836200499
STARLINK-1920           
1 46751U 20074N   24161.42973799 -.00006781  00000+0 -43696-3 0  9994
2 46751  53.0564 306.8754 0000849  99.5703 260.5382 15.06388152200495
STARLINK-1921           
1 46752U 20074P   24161.44079628 -.00004742  00000+0 -29980-3 0  9990
2 46752  53.0568 306.8266 0001347  98.1760 261.9382 15.06386461200496
STARLINK-1922           
1 46753U 20074Q   24161.14223192  .00001121  00000+0  94149-4 0  9991
2 46753  53.0514 308.1659 0002232  92.8900 267.2344 15.06408689200450
STARLINK-1923           
1 46754U 20074R   24161.14960329  .00001170  00000+0  97451-4 0  9995
2 46754  53.0528 308.1335 0002281  94.3498 265.7752 15.06398433200451
STARLINK-1924           
1 46755U 20074S   24161.15466721  .00000075  00000+0  23925-4 0  9992
2 46755  53.0503 313.1099 0001227  99.5671 260.5457 15.06409958200389
STARLINK-1925           
1 46756U 20074T   24161.44960378 -.00007795  00000+0 -50529-3 0  9999
2 46756  53.0534 312.1852 0001106  94.6660 265.4455 15.06378997200425
STARLINK-1926           
1 46757U 20074U   24161.10416643  .00060697  00000+0  11559-2 0  9991
2 46757  53.0533 299.9075 0001647   0.1072 359.9935 15.47647459200556
STARLINK-1928           
1 46758U 20074V   24161.13624245  .00001291  00000+0  10557-3 0  9997
2 46758  53.0541 313.1938 0001427  73.0598 287.0547 15.06399531200382
STARLINK-1833           
1 46759U 20074W   24160.86625183  .00012790  00000+0  87551-3 0  9993
2 46759  53.0551 324.4056 0001414  91.3237 268.7914 15.06418327200175
STARLINK-1896           
1 46760U 20074X   24161.47442494 -.00007086  00000+0 -45746-3 0  9999
2 46760  53.0548 321.6751 0001187  87.7174 272.3950 15.06388626200292
STARLINK-1903           
1 46764U 20074AB  24160.80357910  .00001620  00000+0  12762-3 0  9995
2 46764  53.0530 324.6863 0001656  84.8195 275.2983 15.06405436200170
STARLINK-1906           
1 46765U 20074AC  24161.19059941 -.00016320  00000+0 -10788-2 0  9992
2 46765  53.0568 322.9481 0001330 120.5182 239.5938 15.06414574199951
STARLINK-1916           
1 46766U 20074AD  24161.18323511 -.00003790  00000+0 -23562-3 0  9991
2 46766  53.0544 322.9798 0000985 106.4115 253.6983 15.06407879199969
STARLINK-1917           
1 46767U 20074AE  24161.47811119  .00000318  00000+0  40280-4 0  9998
2 46767  53.0629 321.6603 0002186  91.2626 268.8614 15.06380355200284
STARLINK-1918           
1 46768U 20074AF  24161.48179983 -.00006375  00000+0 -40961-3 0  9992
2 46768  53.0539 321.6411 0001231  97.1784 262.9345 15.06389806200299
STARLINK-1932           
1 46770U 20074AH  24161.15750349  .00005181  00000+0  36637-3 0  9997
2 46770  53.0553 323.6447 0001604  73.6308 286.4858 15.06408021200239
STARLINK-1936           
1 46772U 20074AK  24161.15649047 -.00006248  00000+0 -40092-3 0  9998
2 46772  53.0531 323.0883 0002545  79.1795 280.9480 15.06394607200246
STARLINK-1798           
1 46779U 20074AS  24161.51912653 -.00002757  00000+0 -16630-3 0  9993
2 46779  53.0550 296.4686 0001800 126.2698 233.8457 15.06383025200341
STARLINK-1832           
1 46780U 20074AT  24161.37537191  .00000404  00000+0  46029-4 0  9990
2 46780  53.0507 297.1170 0002695  97.5339 262.5956 15.06398985200339
STARLINK-1834           
1 46781U 20074AU  24161.39287821 -.00000635  00000+0 -23742-4 0  9990
2 46781  53.0496 307.0404 0002087  92.6443 267.4784 15.06393404200205
STARLINK-1835           
1 46782U 20074AV  24161.36431821  .00001556  00000+0  12337-3 0  9997
2 46782  53.0482 297.1669 0003196  89.3109 270.8246 15.06399526200322
STARLINK-1882           
1 46784U 20074AX  24161.07316849 -.00005111  00000+0 -32459-3 0  9999
2 46784  53.0504 298.7062 0004005  82.7281 277.4163 15.06372785200229
STARLINK-1883           
1 46785U 20074AY  24161.10262651 -.00000248  00000+0  22795-5 0  9994
2 46785  53.0524 298.3414 0002340  91.4628 268.6629 15.06389284200244
STARLINK-1893           
1 46786U 20074AZ  24161.48042240  .00009729  00000+0  67186-3 0  9999
2 46786  53.0538 276.6475 0000577 139.4563 220.6469 15.06359575200584
STARLINK-1899           
1 46787U 20074BA  24160.69568365  .00047213  00000+0  10777-2 0  9996
2 46787  53.0468 262.0470 0004082 308.2832  51.7805 15.42428664201046
